1 24876U 97035A   18066.81600162  .00000031  00000-0  00000-0 0  9990
2 24876  55.5041 216.7449 0034045  92.8791 267.4753  2.00565242151315
1 24876U 97035A   18067.31457850  .00000031  00000-0  00000+0 0  9999
2 24876  55.5040 216.7253 0034030  92.8678 267.4877  2.00565251151121
1 24876U 97035A   18067.81315464  .00000029  00000-0  00000+0 0  9995
2 24876  55.5039 216.7058 0034008  92.8423 267.5139  2.00565270151139
1 24876U 97035A   18067.81315471  .00000029  00000-0  00000-0 0  9994
2 24876  55.5039 216.7057 0034018  92.8576 267.4987  2.00565266151335
1 24876U 97035A   18068.81030651  .00000024  00000-0  00000-0 0  9994
2 24876  55.5037 216.6666 0033994  92.8359 267.5211  2.00565260151356
1 24876U 97035A   18069.30888135  .00000021  00000-0  00000+0 0  9993
2 24876  55.5036 216.6470 0033984  92.8262 267.5306  2.00565266151160
1 24876U 97035A   18069.80745672  .00000017  00000-0  00000-0 0  9992
2 24876  55.5036 216.6275 0033967  92.8226 267.5335  2.00565233151373
1 24876U 97035A   18070.30602963  .00000013  00000-0  00000+0 0  9999
2 24876  55.5035 216.6079 0033958  92.8107 267.5445  2.00565269151182
1 24876U 97035A   18070.80460228  .00000010  00000-0  00000-0 0  9998
2 24876  55.5034 216.5883 0033946  92.8036 267.5504  2.00565300151396
1 24876U 97035A   18071.30317627  .00000006  00000-0  00000+0 0  9992
2 24876  55.5033 216.5688 0033934  92.7948 267.5578  2.00565275151208
1 24876U 97035A   18071.80174990  .00000003  00000-0  00000-0 0  9999
2 24876  55.5032 216.5492 0033921  92.7871 267.5639  2.00565254151419
1 24876U 97035A   18072.30032308  .00000001  00000-0  00000+0 0  9998
2 24876  55.5031 216.5296 0033910  92.7811 267.5684  2.00565248151224
1 24876U 97035A   18072.79889615 -.00000000  00000-0  00000-0 0  9993
2 24876  55.5031 216.5101 0033894  92.7744 267.5734  2.00565240151436
1 24876U 97035A   18073.29746920 -.00000001  00000-0  00000+0 0  9990
2 24876  55.5030 216.4905 0033878  92.7682 267.5780  2.00565238151246
1 24876U 97035A   18073.79604224 -.00000001  00000-0  00000+0 0  9995
2 24876  55.5029 216.4710 0033845  92.7481 267.5965  2.00565228151254
1 24876U 97035A   18073.79604246 -.00000001  00000-0  00000-0 0  9990
2 24876  55.5029 216.4710 0033859  92.7613 267.5835  2.00565231151458
1 24876U 97035A   18074.79319071  .00000001  00000-0  00000-0 0  9999
2 24876  55.5027 216.4318 0033829  92.7448 267.5979  2.00565205151475
1 24876U 97035A   18075.29176490  .00000004  00000-0  00000+0 0  9993
2 24876  55.5026 216.4123 0033810  92.7363 267.6058  2.00565210151288
1 24876U 97035A   18075.79034011  .00000006  00000-0  00000-0 0  9993
2 24876  55.5025 216.3927 0033792  92.7265 267.6155  2.00565200151498
1 24876U 97035A   18076.28891539  .00000010  00000-0  00000+0 0  9998
2 24876  55.5024 216.3731 0033776  92.7168 267.6255  2.00565210151306
1 24876U 97035A   18076.78749233  .00000013  00000-0  00000-0 0  9990
2 24876  55.5023 216.3536 0033764  92.7054 267.6377  2.00565187151510
1 24876U 97035A   18077.28606918  .00000017  00000-0  00000+0 0  9991
2 24876  55.5022 216.3340 0033748  92.6939 267.6504  2.00565184151323
1 24876U 97035A   18077.78464671  .00000021  00000-0  00000-0 0  9990
2 24876  55.5021 216.3144 0033734  92.6810 267.6649  2.00565178151533
1 24876U 97035A   18078.28322446  .00000025  00000-0  00000+0 0  9992
2 24876  55.5020 216.2949 0033723  92.6720 267.6758  2.00565183151348
1 24876U 97035A   18078.78180293  .00000029  00000-0  00000-0 0  9994
2 24876  55.5019 216.2753 0033709  92.6609 267.6890  2.00565174151559
1 24876U 97035A   18079.28038147  .00000032  00000-0  00000+0 0  9993
2 24876  55.5018 216.2557 0033694  92.6483 267.7040  2.00565167151362
1 24876U 97035A   18079.77896008  .00000034  00000-0  00000-0 0  9998
2 24876  55.5017 216.2362 0033680  92.6371 267.7175  2.00565160151571
1 24876U 97035A   18080.27753883  .00000035  00000-0  00000+0 0  9998
2 24876  55.5016 216.2167 0033660  92.6195 267.7372  2.00565137151387
1 24876U 97035A   18080.77611681  .00000036  00000-0  00000-0 0  9994
2 24876  55.5015 216.1971 0033647  92.6112 267.7475  2.00565136151598
1 24876U 97035A   18081.27469410  .00000035  00000-0  00000+0 0  9999
2 24876  55.5013 216.1775 0033628  92.5959 267.7642  2.00565134151409
1 24876U 97035A   18081.77327096  .00000032  00000-0  00000-0 0  9995
2 24876  55.5012 216.1580 0033617  92.5911 267.7701  2.00565134151617
1 24876U 97035A   18082.27184718  .00000029  00000-0  00000+0 0  9998
2 24876  55.5011 216.1384 0033600  92.5789 267.7827  2.00565122151428
1 24876U 97035A   18082.77042186  .00000024  00000-0  00000-0 0  9991
2 24876  55.5010 216.1188 0033582  92.5666 267.7947  2.00565135151632
1 24876U 97035A   18083.26899600  .00000018  00000-0  00000+0 0  9999
2 24876  55.5009 216.0993 0033562  92.5530 267.8075  2.00565135151443
1 24876U 97035A   18083.76756989  .00000011  00000-0  00000-0 0  9990
2 24876  55.5008 216.0797 0033545  92.5411 267.8180  2.00565121151658
1 24876U 97035A   18084.26614215  .00000003  00000-0  00000+0 0  9991
2 24876  55.5007 216.0601 0033526  92.5274 267.8299  2.00565137151464
1 24876U 97035A   18084.76471467 -.00000004  00000-0  00000-0 0  9999
2 24876  55.5006 216.0406 0033506  92.5079 267.8470  2.00565126151679
1 24876U 97035A   18085.26328636 -.00000012  00000-0  00000-0 0  9993
2 24876  55.5005 216.0210 0033492  92.4988 267.8538  2.00565142151485
1 24876U 97035A   18085.76185857 -.00000019  00000-0  00000-0 0  9991
2 24876  55.5004 216.0014 0033478  92.4863 267.8637  2.00565134151696
1 24876U 97035A   18086.26043097 -.00000026  00000-0  00000+0 0  9993
2 24876  55.5003 215.9819 0033461  92.4685 267.8791  2.00565125151501
1 24876U 97035A   18086.75900321 -.00000031  00000-0  00000-0 0  9996
2 24876  55.5002 215.9623 0033443  92.4486 267.8968  2.00565132151719
1 24876U 97035A   18087.25757594 -.00000035  00000-0  00000+0 0  9997
2 24876  55.5001 215.9427 0033429  92.4347 267.9090  2.00565145151520
1 24876U 97035A   18087.75614911 -.00000038  00000-0  00000-0 0  9991
2 24876  55.4999 215.9232 0033414  92.4107 267.9317  2.00565165151734
1 24876U 97035A   18088.25472327 -.00000039  00000-0  00000-0 0  9991
2 24876  55.4998 215.9036 0033399  92.4012 267.9405  2.00565183151741
1 24876U 97035A   18088.75329874 -.00000038  00000-0  00000+0 0  9992
2 24876  55.4997 215.8840 0033373  92.3727 267.9689  2.00565188151554
1 24876U 97035A   18088.75329908 -.00000038  00000-0  00000-0 0  9991
2 24876  55.4998 215.8840 0033385  92.3892 267.9525  2.00565175151758
1 24876U 97035A   18090.24902974 -.00000029  00000-0  00000+0 0  9997
2 24876  55.4995 215.8254 0033338  92.3459 267.9994  2.00565211151583
1 24876U 97035A   18090.74760811 -.00000025  00000-0  00000-0 0  9991
2 24876  55.4994 215.8058 0033322  92.3340 268.0134  2.00565220151797
1 24876U 97035A   18091.24618680 -.00000020  00000-0  00000+0 0  9997
2 24876  55.4993 215.7862 0033305  92.3218 268.0281  2.00565233151600
1 24876U 97035A   18091.74476605 -.00000015  00000-0  00000-0 0  9996
2 24876  55.4992 215.7667 0033287  92.3089 268.0438  2.00565237151818
1 24876U 97035A   18092.24334491 -.00000011  00000-0  00000+0 0  9993
2 24876  55.4991 215.7471 0033270  92.2989 268.0566  2.00565259151625
1 24876U 97035A   18092.74192418 -.00000007  00000-0  00000-0 0  9995
2 24876  55.4990 215.7276 0033251  92.2862 268.0721  2.00565265151839
1 24876U 97035A   18093.24050329 -.00000004  00000-0  00000+0 0  9991
2 24876  55.4988 215.7080 0033229  92.2727 268.0883  2.00565271151649
1 24876U 97035A   18093.73908238 -.00000002  00000-0  00000-0 0  9995
2 24876  55.4987 215.6884 0033214  92.2614 268.1021  2.00565269151853
1 24876U 97035A   18094.23766071 -.00000002  00000-0  00000+0 0  9997
2 24876  55.4986 215.6689 0033193  92.2477 268.1181  2.00565277151663
1 24876U 97035A   18094.73623823 -.00000002  00000-0  00000+0 0  9999
2 24876  55.4985 215.6493 0033166  92.2227 268.1449  2.00565301151674
1 24876U 97035A   18094.73623827 -.00000002  00000-0  00000-0 0  9994
2 24876  55.4985 215.6493 0033180  92.2380 268.1297  2.00565298151878
1 24876U 97035A   18096.23196877 -.00000008  00000-0  00000+0 0  9996
2 24876  55.4982 215.5907 0033132  92.1963 268.1750  2.00565314151702
1 24876U 97035A   18096.73054483 -.00000011  00000-0  00000-0 0  9992
2 24876  55.4981 215.5711 0033119  92.1834 268.1885  2.00565309151912
1 24876U 97035A   18097.22912025 -.00000014  00000-0  00000+0 0  9994
2 24876  55.4980 215.5516 0033105  92.1718 268.2002  2.00565307151729
1 24876U 97035A   18097.72769503 -.00000018  00000-0  00000-0 0  9995
2 24876  55.4979 215.5320 0033092  92.1616 268.2102  2.00565313151933
1 24876U 97035A   18098.22626956 -.00000021  00000-0  00000-0 0  9999
2 24876  55.4977 215.5125 0033067  92.1426 268.2287  2.00565305151941
1 24876U 97035A   18098.22626996 -.00000021  00000-0  00000+0 0  9992
2 24876  55.4977 215.5125 0033074  92.1495 268.2219  2.00565296151747
1 24876U 97035A   18098.72484309 -.00000024  00000-0  00000-0 0  9991
2 24876  55.4976 215.4929 0033059  92.1412 268.2296  2.00565332151958
1 24876U 97035A   18099.22341783 -.00000026  00000-0  00000+0 0  9996
2 24876  55.4975 215.4733 0033041  92.1304 268.2396  2.00565307151763
1 24876U 97035A   18099.72199233 -.00000027  00000-0  00000-0 0  9994
2 24876  55.4975 215.4538 0033026  92.1228 268.2464  2.00565289151972
1 24876U 97035A   18100.22056627 -.00000028  00000-0  00000+0 0  9991
2 24876  55.4973 215.4342 0033007  92.1126 268.2557  2.00565287151789
1 24876U 97035A   18100.71914021 -.00000028  00000-0  00000-0 0  9997
2 24876  55.4972 215.4147 0032986  92.1017 268.2660  2.00565287151993
1 24876U 97035A   18101.21771459 -.00000027  00000-0  00000+0 0  9997
2 24876  55.4972 215.3951 0032966  92.0909 268.2762  2.00565283151801
1 24876U 97035A   18101.71628915 -.00000025  00000-0  00000-0 0  9999
2 24876  55.4971 215.3756 0032949  92.0811 268.2857  2.00565287152019
